<?xml version="1.0" encoding="UTF-8"?>
<ndm xmlns:xsi="http://www.w3.org/2001/XMLSchema-instance" xsi:noNamespaceSchemaLocation="https://sanaregistry.org/r/ndmxml_unqualified/ndmxml-2.0.0-master-2.0.xsd">
<omm id="CCSDS_OMM_VERS" version="2.0">
<header><CREATION_DATE/><ORIGINATOR/></header><body><segment><metadata><OBJECT_NAME>ORBCOMM-X [-]</OBJECT_NAME><OBJECT_ID>1991-050C</OBJECT_ID><CENTER_NAME>EARTH</CENTER_NAME><REF_FRAME>TEME</REF_FRAME><TIME_SYSTEM>UTC</TIME_SYSTEM><MEAN_ELEMENT_THEORY>SGP4</MEAN_ELEMENT_THEORY></metadata><data><meanElements><EPOCH>2023-10-11T03:15:18.205632</EPOCH><MEAN_MOTION>14.42205336</MEAN_MOTION><ECCENTRICITY>.0002732</ECCENTRICITY><INCLINATION>98.4239</INCLINATION><RA_OF_ASC_NODE>350.0277</RA_OF_ASC_NODE><ARG_OF_PERICENTER>230.7802</ARG_OF_PERICENTER><MEAN_ANOMALY>129.3146</MEAN_ANOMALY></meanElements><tleParameters><EPHEMERIS_TYPE>0</EPHEMERIS_TYPE><CLASSIFICATION_TYPE>U</CLASSIFICATION_TYPE><NORAD_CAT_ID>21576</NORAD_CAT_ID><ELEMENT_SET_NO>999</ELEMENT_SET_NO><REV_AT_EPOCH>69343</REV_AT_EPOCH><BSTAR>.25281E-3</BSTAR><MEAN_MOTION_DOT>.789E-5</MEAN_MOTION_DOT><MEAN_MOTION_DDOT>0</MEAN_MOTION_DDOT></tleParameters></data></segment></body></omm>
<omm id="CCSDS_OMM_VERS" version="2.0">
<header><CREATION_DATE/><ORIGINATOR/></header><body><segment><metadata><OBJECT_NAME>ORBCOMM FM01 [-]</OBJECT_NAME><OBJECT_ID>1995-017A</OBJECT_ID><CENTER_NAME>EARTH</CENTER_NAME><REF_FRAME>TEME</REF_FRAME><TIME_SYSTEM>UTC</TIME_SYSTEM><MEAN_ELEMENT_THEORY>SGP4</MEAN_ELEMENT_THEORY></metadata><data><meanElements><EPOCH>2023-10-11T08:47:29.591808</EPOCH><MEAN_MOTION>14.76769306</MEAN_MOTION><ECCENTRICITY>.0005668</ECCENTRICITY><INCLINATION>69.9683</INCLINATION><RA_OF_ASC_NODE>149.5614</RA_OF_ASC_NODE><ARG_OF_PERICENTER>200.6483</ARG_OF_PERICENTER><MEAN_ANOMALY>159.4436</MEAN_ANOMALY></meanElements><tleParameters><EPHEMERIS_TYPE>0</EPHEMERIS_TYPE><CLASSIFICATION_TYPE>U</CLASSIFICATION_TYPE><NORAD_CAT_ID>23545</NORAD_CAT_ID><ELEMENT_SET_NO>999</ELEMENT_SET_NO><REV_AT_EPOCH>52137</REV_AT_EPOCH><BSTAR>.93096E-3</BSTAR><MEAN_MOTION_DOT>.6467E-4</MEAN_MOTION_DOT><MEAN_MOTION_DDOT>0</MEAN_MOTION_DDOT></tleParameters></data></segment></body></omm>
<omm id="CCSDS_OMM_VERS" version="2.0">
<header><CREATION_DATE/><ORIGINATOR/></header><body><segment><metadata><OBJECT_NAME>ORBCOMM FM02 [-]</OBJECT_NAME><OBJECT_ID>1995-017B</OBJECT_ID><CENTER_NAME>EARTH</CENTER_NAME><REF_FRAME>TEME</REF_FRAME><TIME_SYSTEM>UTC</TIME_SYSTEM><MEAN_ELEMENT_THEORY>SGP4</MEAN_ELEMENT_THEORY></metadata><data><meanElements><EPOCH>2023-10-11T09:40:33.227904</EPOCH><MEAN_MOTION>14.76296193</MEAN_MOTION><ECCENTRICITY>.0007049</ECCENTRICITY><INCLINATION>69.9708</INCLINATION><RA_OF_ASC_NODE>168.5076</RA_OF_ASC_NODE><ARG_OF_PERICENTER>186.0922</ARG_OF_PERICENTER><MEAN_ANOMALY>174.0141</MEAN_ANOMALY></meanElements><tleParameters><EPHEMERIS_TYPE>0</EPHEMERIS_TYPE><CLASSIFICATION_TYPE>U</CLASSIFICATION_TYPE><NORAD_CAT_ID>23546</NORAD_CAT_ID><ELEMENT_SET_NO>999</ELEMENT_SET_NO><REV_AT_EPOCH>52103</REV_AT_EPOCH><BSTAR>.1279E-2</BSTAR><MEAN_MOTION_DOT>.8819E-4</MEAN_MOTION_DOT><MEAN_MOTION_DDOT>0</MEAN_MOTION_DDOT></tleParameters></data></segment></body></omm>
<omm id="CCSDS_OMM_VERS" version="2.0">
<header><CREATION_DATE/><ORIGINATOR/></header><body><segment><metadata><OBJECT_NAME>ORBCOMM FM08 [-]</OBJECT_NAME><OBJECT_ID>1997-084A</OBJECT_ID><CENTER_NAME>EARTH</CENTER_NAME><REF_FRAME>TEME</REF_FRAME><TIME_SYSTEM>UTC</TIME_SYSTEM><MEAN_ELEMENT_THEORY>SGP4</MEAN_ELEMENT_THEORY></metadata><data><meanElements><EPOCH>2023-10-11T09:13:54.467616</EPOCH><MEAN_MOTION>14.41364683</MEAN_MOTION><ECCENTRICITY>.000626</ECCENTRICITY><INCLINATION>45.0143</INCLINATION><RA_OF_ASC_NODE>67.9833</RA_OF_ASC_NODE><ARG_OF_PERICENTER>28.0252</ARG_OF_PERICENTER><MEAN_ANOMALY>332.0933</MEAN_ANOMALY></meanElements><tleParameters><EPHEMERIS_TYPE>0</EPHEMERIS_TYPE><CLASSIFICATION_TYPE>U</CLASSIFICATION_TYPE><NORAD_CAT_ID>25112</NORAD_CAT_ID><ELEMENT_SET_NO>999</ELEMENT_SET_NO><REV_AT_EPOCH>35254</REV_AT_EPOCH><BSTAR>.12832E-2</BSTAR><MEAN_MOTION_DOT>.4054E-4</MEAN_MOTION_DOT><MEAN_MOTION_DDOT>0</MEAN_MOTION_DDOT></tleParameters></data></segment></body></omm>
<omm id="CCSDS_OMM_VERS" version="2.0">
<header><CREATION_DATE/><ORIGINATOR/></header><body><segment><metadata><OBJECT_NAME>ORBCOMM FM10 [-]</OBJECT_NAME><OBJECT_ID>1997-084B</OBJECT_ID><CENTER_NAME>EARTH</CENTER_NAME><REF_FRAME>TEME</REF_FRAME><TIME_SYSTEM>UTC</TIME_SYSTEM><MEAN_ELEMENT_THEORY>SGP4</MEAN_ELEMENT_THEORY></metadata><data><meanElements><EPOCH>2023-10-11T10:48:35.646912</EPOCH><MEAN_MOTION>14.41304586</MEAN_MOTION><ECCENTRICITY>.0003988</ECCENTRICITY><INCLINATION>45.0156</INCLINATION><RA_OF_ASC_NODE>69.3868</RA_OF_ASC_NODE><ARG_OF_PERICENTER>351.6189</ARG_OF_PERICENTER><MEAN_ANOMALY>8.4593</MEAN_ANOMALY></meanElements><tleParameters><EPHEMERIS_TYPE>0</EPHEMERIS_TYPE><CLASSIFICATION_TYPE>U</CLASSIFICATION_TYPE><NORAD_CAT_ID>25113</NORAD_CAT_ID><ELEMENT_SET_NO>999</ELEMENT_SET_NO><REV_AT_EPOCH>52770</REV_AT_EPOCH><BSTAR>.11371E-2</BSTAR><MEAN_MOTION_DOT>.3571E-4</MEAN_MOTION_DOT><MEAN_MOTION_DDOT>0</MEAN_MOTION_DDOT></tleParameters></data></segment></body></omm>
<omm id="CCSDS_OMM_VERS" version="2.0">
<header><CREATION_DATE/><ORIGINATOR/></header><body><segment><metadata><OBJECT_NAME>ORBCOMM FM11 [+]</OBJECT_NAME><OBJECT_ID>1997-084C</OBJECT_ID><CENTER_NAME>EARTH</CENTER_NAME><REF_FRAME>TEME</REF_FRAME><TIME_SYSTEM>UTC</TIME_SYSTEM><MEAN_ELEMENT_THEORY>SGP4</MEAN_ELEMENT_THEORY></metadata><data><meanElements><EPOCH>2023-10-11T09:11:28.649472</EPOCH><MEAN_MOTION>14.41190306</MEAN_MOTION><ECCENTRICITY>.0004729</ECCENTRICITY><INCLINATION>45.0140</INCLINATION><RA_OF_ASC_NODE>69.6166</RA_OF_ASC_NODE><ARG_OF_PERICENTER>352.8180</ARG_OF_PERICENTER><MEAN_ANOMALY>7.2601</MEAN_ANOMALY></meanElements><tleParameters><EPHEMERIS_TYPE>0</EPHEMERIS_TYPE><CLASSIFICATION_TYPE>U</CLASSIFICATION_TYPE><NORAD_CAT_ID>25114</NORAD_CAT_ID><ELEMENT_SET_NO>999</ELEMENT_SET_NO><REV_AT_EPOCH>35266</REV_AT_EPOCH><BSTAR>.12176E-2</BSTAR><MEAN_MOTION_DOT>.3825E-4</MEAN_MOTION_DOT><MEAN_MOTION_DDOT>0</MEAN_MOTION_DDOT></tleParameters></data></segment></body></omm>
<omm id="CCSDS_OMM_VERS" version="2.0">
<header><CREATION_DATE/><ORIGINATOR/></header><body><segment><metadata><OBJECT_NAME>ORBCOMM FM12 [-]</OBJECT_NAME><OBJECT_ID>1997-084D</OBJECT_ID><CENTER_NAME>EARTH</CENTER_NAME><REF_FRAME>TEME</REF_FRAME><TIME_SYSTEM>UTC</TIME_SYSTEM><MEAN_ELEMENT_THEORY>SGP4</MEAN_ELEMENT_THEORY></metadata><data><meanElements><EPOCH>2023-10-11T13:07:49.089216</EPOCH><MEAN_MOTION>14.41181387</MEAN_MOTION><ECCENTRICITY>.0003758</ECCENTRICITY><INCLINATION>45.0152</INCLINATION><RA_OF_ASC_NODE>68.4763</RA_OF_ASC_NODE><ARG_OF_PERICENTER>354.8317</ARG_OF_PERICENTER><MEAN_ANOMALY>5.2493</MEAN_ANOMALY></meanElements><tleParameters><EPHEMERIS_TYPE>0</EPHEMERIS_TYPE><CLASSIFICATION_TYPE>U</CLASSIFICATION_TYPE><NORAD_CAT_ID>25115</NORAD_CAT_ID><ELEMENT_SET_NO>999</ELEMENT_SET_NO><REV_AT_EPOCH>35248</REV_AT_EPOCH><BSTAR>.11383E-2</BSTAR><MEAN_MOTION_DOT>.3565E-4</MEAN_MOTION_DOT><MEAN_MOTION_DDOT>0</MEAN_MOTION_DDOT></tleParameters></data></segment></body></omm>
<omm id="CCSDS_OMM_VERS" version="2.0">
<header><CREATION_DATE/><ORIGINATOR/></header><body><segment><metadata><OBJECT_NAME>ORBCOMM FM09 [-]</OBJECT_NAME><OBJECT_ID>1997-084E</OBJECT_ID><CENTER_NAME>EARTH</CENTER_NAME><REF_FRAME>TEME</REF_FRAME><TIME_SYSTEM>UTC</TIME_SYSTEM><MEAN_ELEMENT_THEORY>SGP4</MEAN_ELEMENT_THEORY></metadata><data><meanElements><EPOCH>2023-10-11T11:37:46.860096</EPOCH><MEAN_MOTION>14.41163342</MEAN_MOTION><ECCENTRICITY>.0005083</ECCENTRICITY><INCLINATION>45.0153</INCLINATION><RA_OF_ASC_NODE>69.4054</RA_OF_ASC_NODE><ARG_OF_PERICENTER>335.4359</ARG_OF_PERICENTER><MEAN_ANOMALY>24.6247</MEAN_ANOMALY></meanElements><tleParameters><EPHEMERIS_TYPE>0</EPHEMERIS_TYPE><CLASSIFICATION_TYPE>U</CLASSIFICATION_TYPE><NORAD_CAT_ID>25116</NORAD_CAT_ID><ELEMENT_SET_NO>999</ELEMENT_SET_NO><REV_AT_EPOCH>35268</REV_AT_EPOCH><BSTAR>.11446E-2</BSTAR><MEAN_MOTION_DOT>.3585E-4</MEAN_MOTION_DOT><MEAN_MOTION_DDOT>0</MEAN_MOTION_DDOT></tleParameters></data></segment></body></omm>

</ndm>
