ORBCOMM-X [-]           
1 21576U 91050C   23284.13562738  .00000789  00000+0  25281-3 0  9994
2 21576  98.4239 350.0277 0002732 230.7802 129.3146 14.42205336693439
ORBCOMM FM01 [-]        
1 23545U 95017A   23284.36631472  .00006467  00000+0  93096-3 0  9994
2 23545  69.9683 149.5614 0005668 200.6483 159.4436 14.76769306521379
ORBCOMM FM02 [-]        
1 23546U 95017B   23284.40316236  .00008819  00000+0  12790-2 0  9992
2 23546  69.9708 168.5076 0007049 186.0922 174.0141 14.76296193521039
ORBCOMM FM08 [-]        
1 25112U 97084A   23284.38465819  .00004054  00000+0  12832-2 0  9992
2 25112  45.0143  67.9833 0006260  28.0252 332.0933 14.41364683352541
ORBCOMM FM10 [-]        
1 25113U 97084B   23284.45041258  .00003571  00000+0  11371-2 0  9998
2 25113  45.0156  69.3868 0003988 351.6189   8.4593 14.41304586527702
ORBCOMM FM11 [+]        
1 25114U 97084C   23284.38297048  .00003825  00000+0  12176-2 0  9997
2 25114  45.0140  69.6166 0004729 352.8180   7.2601 14.41190306352669
ORBCOMM FM12 [-]        
1 25115U 97084D   23284.54709594  .00003565  00000+0  11383-2 0  9990
2 25115  45.0152  68.4763 0003758 354.8317   5.2493 14.41181387352484
ORBCOMM FM09 [-]        
1 25116U 97084E   23284.48457014  .00003585  00000+0  11446-2 0  9993
2 25116  45.0153  69.4054 0005083 335.4359  24.6247 14.41163342352689
